{
  "type": "FeatureCollection",
  "features": [
    {
      "type": "Feature",
      "properties": {
        "norad_id": 19071,
        "name": "OSCAR 32",
        "group": "nnss",
        "lat": -0.6120296745147727,
        "lon": 16.9990678800598,
        "alt_km": 1237.9554210378083,
        "timestamp": "2025-12-27T22:26:48.872146+00:00",
        "meta_object_name": "OSCAR 32",
        "meta_object_id": "1988-033B",
        "meta_epoch": "2025-12-27T12:10:14.069856",
        "meta_mean_motion": 13.27956153,
        "meta_eccentricity": 0.0189365,
        "meta_inclination": 90.3209,
        "meta_ra_of_asc_node": 16.9823,
        "meta_arg_of_pericenter": 125.9186,
        "meta_mean_anomaly": 349.5834,
        "meta_ephemeris_type": 0,
        "meta_classification_type": "U",
        "meta_norad_cat_id": 19071,
        "meta_element_set_no": 999,
        "meta_rev_at_epoch": 82461,
        "meta_bstar": 0.00013953,
        "meta_mean_motion_dot": 7.9e-07,
        "meta_mean_motion_ddot": 0,
        "tle_line1": "1 19071U 88033B   25361.50710729  .00000079  00000+0  13953-3 0  9997",
        "tle_line2": "2 19071  90.3209  16.9823 0189365 125.9186 349.5834 13.27956153824615"
      },
      "geometry": {
        "type": "Point",
        "coordinates": [
          16.9990678800598,
          -0.6120296745147727
        ]
      }
    },
    {
      "type": "Feature",
      "properties": {
        "norad_id": 19223,
        "name": "NOVA 2",
        "group": "nnss",
        "lat": -75.90398084996502,
        "lon": 78.19814400221965,
        "alt_km": 1166.8067690356856,
        "timestamp": "2025-12-27T22:26:48.872156+00:00",
        "meta_object_name": "NOVA 2",
        "meta_object_id": "1988-052A",
        "meta_epoch": "2025-12-27T04:56:26.312640",
        "meta_mean_motion": 13.22937732,
        "meta_eccentricity": 0.00293738,
        "meta_inclination": 89.9862,
        "meta_ra_of_asc_node": 78.2541,
        "meta_arg_of_pericenter": 336.6486,
        "meta_mean_anomaly": 75.7931,
        "meta_ephemeris_type": 0,
        "meta_classification_type": "U",
        "meta_norad_cat_id": 19223,
        "meta_element_set_no": 999,
        "meta_rev_at_epoch": 81139,
        "meta_bstar": 0.00015382382,
        "meta_mean_motion_dot": 7.3e-07,
        "meta_mean_motion_ddot": 0,
        "tle_line1": "1 19223U 88052A   25361.20586010  .00000073  00000+0  15382-3 0  9990",
        "tle_line2": "2 19223  89.9862  78.2541 0029373 336.6486  75.7931 13.22937732811391"
      },
      "geometry": {
        "type": "Point",
        "coordinates": [
          78.19814400221965,
          -75.90398084996502
        ]
      }
    },
    {
      "type": "Feature",
      "properties": {
        "norad_id": 19419,
        "name": "OSCAR 25",
        "group": "nnss",
        "lat": -3.5284290128785014,
        "lon": 20.295086672025413,
        "alt_km": 1167.241965098493,
        "timestamp": "2025-12-27T22:26:48.872166+00:00",
        "meta_object_name": "OSCAR 25",
        "meta_object_id": "1988-074A",
        "meta_epoch": "2025-12-27T12:18:08.767008",
        "meta_mean_motion": 13.42626005,
        "meta_eccentricity": 0.0095399,
        "meta_inclination": 90.0336,
        "meta_ra_of_asc_node": 20.2916,
        "meta_arg_of_pericenter": 203.1733,
        "meta_mean_anomaly": 271.1126,
        "meta_ephemeris_type": 0,
        "meta_classification_type": "U",
        "meta_norad_cat_id": 19419,
        "meta_element_set_no": 999,
        "meta_rev_at_epoch": 82838,
        "meta_bstar": 0.00014961,
        "meta_mean_motion_dot": 9.6e-07,
        "meta_mean_motion_ddot": 0,
        "tle_line1": "1 19419U 88074A   25361.51260147  .00000096  00000+0  14961-3 0  9992",
        "tle_line2": "2 19419  90.0336  20.2916 0095399 203.1733 271.1126 13.42626005828389"
      },
      "geometry": {
        "type": "Point",
        "coordinates": [
          20.295086672025413,
          -3.5284290128785014
        ]
      }
    },
    {
      "type": "Feature",
      "properties": {
        "norad_id": 19420,
        "name": "OSCAR 31",
        "group": "nnss",
        "lat": -58.54807565272869,
        "lon": -159.41219560978408,
        "alt_km": 1054.7103163371576,
        "timestamp": "2025-12-27T22:26:48.872175+00:00",
        "meta_object_name": "OSCAR 31",
        "meta_object_id": "1988-074B",
        "meta_epoch": "2025-12-27T11:09:54.931104",
        "meta_mean_motion": 13.42586975,
        "meta_eccentricity": 0.0093791,
        "meta_inclination": 90.0353,
        "meta_ra_of_asc_node": 20.6439,
        "meta_arg_of_pericenter": 197.4688,
        "meta_mean_anomaly": 289.6459,
        "meta_ephemeris_type": 0,
        "meta_classification_type": "U",
        "meta_norad_cat_id": 19420,
        "meta_element_set_no": 999,
        "meta_rev_at_epoch": 82848,
        "meta_bstar": 0.00013477,
        "meta_mean_motion_dot": 8.7e-07,
        "meta_mean_motion_ddot": 0,
        "tle_line1": "1 19420U 88074B   25361.46521911  .00000087  00000+0  13477-3 0  9998",
        "tle_line2": "2 19420  90.0353  20.6439 0093791 197.4688 289.6459 13.42586975828487"
      },
      "geometry": {
        "type": "Point",
        "coordinates": [
          -159.41219560978408,
          -58.54807565272869
        ]
      }
    }
  ]
}